#dP2023  4 10  0  0  0.00000000      96 __u+U IGS14 FIT  IAC
## 2257  86400.00000000   900.00000000 60044 0.0000000000000
+  119   C06C07C08C09C10C11C12C13C14C16C19C20C21C22C23C24C25
+        C26C27C28C29C30C32C33C34C35C36C37C38C39C40C41C42C43
+        C44C45C46E01E02E03E04E05E07E08E09E10E11E12E13E14E15
+        E18E19E21E24E25E26E27E30E31E33E34E36G01G02G03G04G05
+        G06G07G08G09G10G11G12G13G14G15G16G17G18G19G20G21G22
+        G23G24G25G26G27G28G29G30G31G32J02J03J04R01R02R03R04
+        R05R07R08R09R11R12R13R14R15R16R17R18R19R20R22R24R25
++         7  7  7  7  7  7  6  7  7  7  6  6  6  6  6  6  6
++         6  6  6  6  6  6  6  6  6  6  6  6  6  6  6  6  6
++         6  6  6  4  4  4  4  4  4  4  5  4  4  4  4  4  4
++         5  4  4  4  4  4  4  4  4  4  4  4  4  4  4  3  3
++         4  4  4  3  3  3  3  4  4  4  3  4  4  4  4  4  4
++         3  4  3  3  3  4  3  4  3  4  9  9  9  8  7  7  7
++         7  7  7  7  7  7  8  6  7  7  7  7  8  8  6  6  8
%c M  cc GPS ccc cccc cccc cccc cccc ccccc ccccc ccccc ccccc
%c cc cc ccc ccc cccc cccc cccc cccc ccccc ccccc ccccc ccccc
%f  1.2500000  1.025000000  0.00000000000  0.000000000000000
%f  0.0000000  0.000000000  0.00000000000  0.000000000000000
%i    0    0    0    0      0      0      0      0         0
%i    0    0    0    0      0      0      0      0         0
/* INFORMATION & ANALYSIS CENTER (IAC)            FINAL DATA
/* S/V CLOCKS ARE ALIGNED TO GNSS TIME                      
/* G:C1WC2W R:C1PC2P E:C1XC5X C:C2IC6I J:C1CC2S             
/* PCV:IGS20_2247 OL/AL:FES2004  NONE     YN ORB:CoN CLK:CoN
*  2023 04 10  5 30  0.00000000
PC06  -3495.267778  36957.466350 -19714.937688   -197.220839
PC07 -12048.522113  25565.980929  31298.978467   -147.958266
PC08 -19180.322932  34751.930123 -14473.843030    507.297099
PC09   2672.700664  40319.952824 -10599.778398    784.202017
PC10  -2410.096236  27270.547483  32359.115109    -29.624459
PC11 -16487.012635    405.376923  22570.890200    292.184869
PC12 -18047.410966 -17763.585437  11757.417110    561.926491
PC13 -13113.354599  35047.001562 -19526.325776    249.403040
PC14 -26957.596679   3649.177212  -6054.429100    103.554390
PC16  -4999.772694  35293.662990 -22058.999374    113.809358
PC19  21937.674892  -9450.676620  14481.696895   -900.176106
PC20  27836.379652   1598.739343  -1529.243305    633.813216
PC21 -17261.094725 -12619.173292  17939.589934   -909.616854
PC22   3135.447806 -15597.514215  22934.753081   -543.199278
PC23  -8804.280317  25305.901337   7805.787297   -902.891119
PC24 -17911.451456   -241.834647 -21418.307735   -189.432336
PC25 -18325.607538  19112.253514  -8854.580006    103.750667
PC26  -7682.877679 -16786.691677 -20932.743005   -104.154508
PC27  15289.526460  23024.503530  -3812.881518    123.403118
PC28   3454.246441  24764.040263  12390.458711     90.809606
PC29  11454.294604 -11675.702968 -22619.742641    105.129387
PC30  19527.027204   8425.449142 -18065.041136      0.479316
PC32  17354.832684  12483.203721 -17923.541967   -581.874631
PC33 -21928.494106   9530.850143 -14361.056061   -872.896753
PC34 -19377.240888  -7178.342585  18751.961779    145.645744
PC35  -3576.521283 -24402.553477 -13112.566292    648.819188
PC36  18967.577471 -18134.336714   9504.487876   -510.280007
PC37   6237.954534  17999.690416  20408.943534   -791.474889
PC38 -23410.005777  34673.287159  -5756.664714     70.768254
PC39  -7661.365038  31474.924215 -26827.384993     -2.494120
PC40 -16515.911466  18988.270356  33769.501880    -19.933522
PC41  -3801.596253  15558.525460 -22792.266156   -831.620456
PC42 -27631.988571  -2478.023264   2922.958977   -744.262055
PC43 -12135.901468  10876.587204  22637.859690     15.973592
PC44 -16045.022447 -22575.947481   3553.246712     71.288479
PC45   8512.822195 -25250.916180  -8253.079213    -83.164700
PC46  18378.646808  -1488.717880  20931.531900    -45.939595
PE01  13156.285005 -20028.255583 -17376.968088     -3.928174
PE02 -12728.536706  20043.232041  17678.930084     31.461758
PE03   -644.913657  18733.356929 -22907.552225   -667.728906
PE04 -18002.689826 -20768.047421  11001.065555    -97.312154
PE05 -19406.756803   5604.310555 -21626.929903    -78.203403
PE07  26536.044663  10741.997548   7554.816830    -36.466341
PE08  17912.271560  20722.136325 -11228.779110    -64.990223
PE09 -26509.334072 -10871.594099  -7395.758496   -899.643397
PE10 -12228.771828 -17846.376058  20195.877457   -525.391037
PE11 -15480.310531  -6497.667317  24369.630215   1555.040531
PE12  -7387.197228 -25436.694516  13235.505252   -492.727367
PE13  15271.970253   7375.899937 -24256.458942    -18.421637
PE14  -1089.688162 -21195.706394 -18886.511696    192.900462
PE15   7205.099485  25602.390217 -12974.290069    -13.527882
PE18  17640.192386  22387.411029   7029.447449   -182.969120
PE19   3446.514949 -17394.965636  23713.231367  -2801.375835
PE21  25772.771673 -14459.636077  -1657.967218   -522.516010
PE24 -24402.709278   -587.018945 -16779.514800    -35.999978
PE25 -25904.037552  14270.275686   1324.747711   -602.997142
PE26  14221.854825 -15705.873380 -20670.869070     70.847553
PE27  24743.396890   -154.702370  16234.612483    -21.428784
PE30   8497.074933  14497.303315  24353.342550    -80.846382
PE31  -9162.855743 -14080.075359 -24370.223762   -520.896717
PE33   5050.280787 -28577.868573  -5872.563299   -446.716580
PE34  -4901.032924  28625.160778   5714.366399    -39.438433
PE36 -14296.340277  14909.380614  21194.707512    -39.130295
PG01 -13195.015611  14440.365226  17464.996704    194.630410
PG02   8881.530015 -21641.291175 -12372.864341   -607.464407
PG03 -22713.521672  13131.990040  -3822.475465   -332.579672
PG04 -14781.556724   7025.216082 -20928.977185     13.225340
PG05  23713.825230  -2838.582107 -11916.852423   -122.827125
PG06   5876.227127  22584.214218 -12525.908085    586.256708
PG07  -6664.546085  24655.653310  -5839.949593    204.693472
PG08 -22429.380352  -3234.959006  14098.790279   -117.037093
PG09  -4258.441802  15341.073268 -21323.852931   -183.146652
PG10  -2769.583405 -14967.763942  21913.163213    -32.193150
PG11  12986.330538  10290.727045 -20757.817547   -157.576434
PG12  24313.073594 -10443.300035  -1885.394569   -362.091183
PG13  21881.256668  11742.702129   9522.178612    503.520134
PG14   -754.074287  16460.682862  20812.021913     20.613888
PG15  22570.022450    277.183481  13751.308755     29.277044
PG16 -22897.565557  -2195.560891 -13971.395183   -509.893817
PG17   8844.714835  20317.199757  14995.523545    709.846618
PG18   4860.187738 -25890.432684  -2693.060962   -217.577252
PG19  16525.410331  20076.846255   5880.203969    301.637146
PG20  18231.411747   3986.271333 -18789.844300    439.899857
PG21 -15188.806227   4789.809475  21698.967685    154.259528
PG22 -18332.720689 -19046.714660   3805.478622    461.397773
PG23  10081.623849 -17758.724130  16907.587767     15.846428
PG24  14375.873274 -10355.946493  19309.623002   -145.937466
PG25  17384.357679 -16785.353068 -11022.172528    434.454393
PG26 -13591.175088 -10039.816865 -20673.017445    241.817437
PG27 -23134.842379 -12633.589246   4507.403999     62.237340
PG28  -5980.627653 -23593.596370 -10664.974087     62.253270
PG29   8897.812070 -11954.274024 -22034.433229   -594.854220
PG30   1311.138789  25826.661099   5510.237889   -523.089748
PG31  -9712.253590 -18167.333043 -16694.800077   -213.626508
PG32 -12670.930669 -19803.011430  12728.083612   -447.467906
PJ02 -30661.833460  27790.330708  13301.309343     -1.471851
PJ03 -26413.615359  24719.186204  26720.336612      2.074911
PJ04 -32294.845825  20283.961800 -12820.679572     94.172532
PR01  10086.612887  -8757.982717  21741.743327     26.392200
PR02  -9896.999986 -11905.564746  20342.588366    -22.973001
PR03 -23218.733849  -8136.442657   6893.414731     75.752564
PR04 -23409.240268   -199.687407 -10108.025653    182.733637
PR05 -10977.111644   7916.704459 -21608.196286    110.721774
PR07  23514.984138   7774.819016  -5957.515610     53.501325
PR08  23298.227077   -168.482008  10416.426645    -70.277525
PR09  -1700.357118  16725.599921  19168.861618    113.889440
PR11  18281.032963 -11026.088835  13980.120971    -33.300743
PR12  14885.644086 -20203.792427  -4503.083487     26.332355
PR13   3578.507613 -17549.178538 -18179.319701    -33.828234
PR14 -11471.172260  -3445.165223 -22511.108177     24.525457
PR15 -18598.717066  11698.626245 -12939.182977     89.890375
PR16 -14892.178593  20256.619694   4213.832544     13.351844
PR17 -12561.110019 -15837.034890  15543.263851    619.874010
PR18 -10719.053610    578.301391  23153.914004     75.778103
PR19  -4602.167720  15677.508408  19583.105151   -228.491874
PR20   6055.925795  24680.435807   1895.306912    -90.830399
PR22  10858.016320  -1369.131495 -23016.419936     78.663606
PR24  -7157.329370 -24449.760140  -1204.702863    160.739117
PR25  11980.678729  16566.111130 -15261.892461     60.686771
EOF
